OBJECT_NAME,OBJECT_ID,EPOCH,MEAN_MOTION,ECCENTRICITY,INCLINATION,RA_OF_ASC_NODE,ARG_OF_PERICENTER,MEAN_ANOMALY,EPHEMERIS_TYPE,CLASSIFICATION_TYPE,NORAD_CAT_ID,ELEMENT_SET_NO,REV_AT_EPOCH,BSTAR,MEAN_MOTION_DOT,MEAN_MOTION_DDOT
SWARM A,2013-067B,2026-07-02T18:26:02.956128,15.51250384,.000323,87.3304,50.4504,96.7690,263.3939,0,U,39452,999,70866,.18692464E-3,.10985E-3,0
SWARM C,2013-067C,2026-07-02T18:25:54.348960,15.51249270,.00032039,87.3303,49.0312,96.8010,263.3615,0,U,39453,999,70862,.18700246E-3,.10989E-3,0
BRITE-CA1 (TORONTO),2014-033L,2026-07-02T19:13:13.805472,14.72703454,.00776097,97.9759,312.4427,226.2184,133.2586,0,U,40020,999,64451,.1826715E-3,.1167E-4,0
OCO 2,2014-035A,2026-07-02T19:29:23.714592,14.57124290,.00014886,98.2019,124.8674,82.0449,278.0919,0,U,40059,999,63832,.11786969E-3,.486E-5,0
BRITE-PL2 (HEWELIUSZ),2014-049B,2026-07-02T20:06:56.655936,14.94651278,.00150691,97.9112,295.9600,60.8674,299.4052,0,U,40119,999,64378,.19366643E-3,.2043E-4,0
MMS 1,2015-011A,2026-07-03T10:00:08.000064,0.28324512,.83185473,72.4331,348.5517,167.7129,154.2440,0,U,40482,999,138,0,-.891E-5,0
MMS 2,2015-011B,2026-07-03T10:00:08.000064,0.28323573,.83210361,72.4277,348.5527,167.7134,154.2462,0,U,40483,999,138,0,-.891E-5,0
MMS 3,2015-011C,2026-07-03T10:00:08.000064,0.28323605,.83194031,72.4274,348.5646,167.7209,154.2203,0,U,40484,999,138,0,-.89E-5,0
MMS 4,2015-011D,2026-07-03T10:00:08.000064,0.28323606,.8319321,72.4236,348.5479,167.7307,154.2139,0,U,40485,999,138,0,-.891E-5,0
ASTROSAT,2015-052A,2026-07-02T03:51:15.719040,14.82533398,.00085641,5.9977,47.5602,250.6263,109.2939,0,U,40930,999,58205,.13028684E-3,.1744E-4,0
DAMPE,2015-078A,2026-07-03T15:22:55.564032,15.30828158,.00128562,97.4555,190.1891,25.3044,334.8824,0,U,41173,999,58706,.4403346E-4,.1236E-4,0
PISAT,2016-059B,2026-07-02T11:16:40.498752,14.69011061,.0029647,97.8182,183.2661,153.9873,206.2831,0,U,41784,999,52198,.19878E-3,.1126E-4,0
HXMT (HUIYAN),2017-034A,2026-07-03T15:27:36.324288,15.18606422,.00327816,43.0143,91.3968,250.4727,109.2580,0,U,42758,999,50016,.32449214E-3,.6694E-4,0
FLYING LAPTOP,2017-042G,2026-07-03T15:35:08.547936,15.01251005,.00199668,97.4764,339.5560,69.1699,291.1662,0,U,42831,999,48892,.23720779E-3,.3002E-4,0
ZHANGHENG 1-01 (CSES-1),2018-015C,2026-07-03T15:39:57.978432,15.21030249,.00178182,97.6887,350.6401,205.7408,154.2942,0,U,43194,999,46714,.34523658E-3,.7622E-4,0
SALSAT,2020-068K,2026-07-02T06:06:00.402048,15.30013367,.0008038,97.8847,187.2381,243.7769,116.2645,0,U,46495,999,31766,.29987E-3,.8637E-4,0
IXPE,2021-121A,2026-07-03T10:00:08.000064,15.10404398,.00067157,0.2284,194.5301,323.8584,278.7926,0,U,49954,999,591,.6283271E-3,.11575E-3,0
SMILE,2026-109A,2026-06-07T09:11:54.544416,7.54049028,.3310191,69.9787,209.3069,288.5544,45.7342,0,U,69123,999,248,-.36778157E-3,-.41E-6,0
