SWARM A                 
1 39452U 13067B   26183.76808977  .00010985  00000+0  18692-3 0  9993
2 39452  87.3304  50.4504 0003230  96.7690 263.3939 15.51250384708669
SWARM C                 
1 39453U 13067C   26183.76799015  .00010989  00000+0  18700-3 0  9990
2 39453  87.3303  49.0312 0003203  96.8010 263.3615 15.51249270708626
BRITE-CA1 (TORONTO)     
1 40020U 14033L   26183.80085423  .00001167  00000+0  18267-3 0  9998
2 40020  97.9759 312.4427 0077609 226.2184 133.2586 14.72703454644516
OCO 2                   
1 40059U 14035A   26183.81208003  .00000486  00000+0  11787-3 0  9997
2 40059  98.2019 124.8674 0001488  82.0449 278.0919 14.57124290638322
BRITE-PL2 (HEWELIUSZ)   
1 40119U 14049B   26183.83815574  .00002043  00000+0  19367-3 0  9991
2 40119  97.9112 295.9600 0015069  60.8674 299.4052 14.94651278643785
MMS 1                   
1 40482U 15011A   26184.41675926 -.00000891  00000+0  00000+0 0  9994
2 40482  72.4331 348.5517 8318547 167.7129 154.2440  0.28324512  1381
MMS 2                   
1 40483U 15011B   26184.41675926 -.00000891  00000+0  00000+0 0  9995
2 40483  72.4277 348.5527 8321036 167.7134 154.2462  0.28323573  1385
MMS 3                   
1 40484U 15011C   26184.41675926 -.00000890  00000+0  00000+0 0  9995
2 40484  72.4274 348.5646 8319403 167.7209 154.2203  0.28323605  1382
MMS 4                   
1 40485U 15011D   26184.41675926 -.00000891  00000+0  00000+0 0  9997
2 40485  72.4236 348.5479 8319321 167.7307 154.2139  0.28323606  1382
ASTROSAT                
1 40930U 15052A   26183.16059860  .00001744  00000+0  13029-3 0  9997
2 40930   5.9977  47.5602 0008564 250.6263 109.2939 14.82533398582055
DAMPE                   
1 41173U 15078A   26184.64092088  .00001236  00000+0  44033-4 0  9994
2 41173  97.4555 190.1891 0012856  25.3044 334.8824 15.30828158587061
PISAT                   
1 41784U 16059B   26183.46991318  .00001126  00000+0  19878-3 0  9991
2 41784  97.8182 183.2661 0029647 153.9873 206.2831 14.69011061521988
HXMT (HUIYAN)           
1 42758U 17034A   26184.64417042  .00006694  00000+0  32449-3 0  9999
2 42758  43.0143  91.3968 0032781 250.4727 109.2580 15.18606422500169
FLYING LAPTOP           
1 42831U 17042G   26184.64940449  .00003002  00000+0  23721-3 0  9995
2 42831  97.4764 339.5560 0019966  69.1699 291.1662 15.01251005488927
ZHANGHENG 1-01 (CSES-1) 
1 43194U 18015C   26184.65275438  .00007622  00000+0  34524-3 0  9994
2 43194  97.6887 350.6401 0017818 205.7408 154.2942 15.21030249467144
SALSAT                  
1 46495U 20068K   26183.25417132  .00008637  00000+0  29987-3 0  9990
2 46495  97.8847 187.2381 0008038 243.7769 116.2645 15.30013367317667
IXPE                    
1 49954U 21121A   26184.41675926  .00011575  00000+0  62833-3 0  9992
2 49954   0.2284 194.5301 0006715 323.8584 278.7926 15.10404398  5915
SMILE                   
1 69123U 26109A   26158.38327019 -.00000041  00000+0 -36778-3 0  9994
2 69123  69.9787 209.3069 3310191 288.5544  45.7342  7.54049028  2480
